NORAD_CAT_ID,OBJECT_NAME,OBJECT_TYPE,EPOCH,MEAN_MOTION,ECCENTRICITY,INCLINATION,RA_OF_ASC_NODE,ARG_OF_PERICENTER,MEAN_ANOMALY,BSTAR,MEAN_MOTION_DOT,MEAN_MOTION_DDOT,TLE_LINE0,TLE_LINE1,TLE_LINE2,SEMIMAJOR_AXIS,PERIOD,APOGEE,PERIGEE,DECAYED
49432.0,STARLINK-3158,PAYLOAD,2023-11-27 01:37:36,15.08803159,0.0001814,53.2186,1.3978,99.3026,260.8172,-0.0011718,-0.0001887,0.0,0 STARLINK-3158,1 49432U 21104AA  23331.06778254 -.00018870  00000-0 -11718-2 0  9997,2 49432  53.2186   1.3978 0001814  99.3026 260.8172 15.08803159114002,6917.993,95.44,541.113,538.603,0.0
49432.0,STARLINK-3158,PAYLOAD,2023-11-27 09:34:33,15.08790773,0.0002025,53.2176,359.9119,87.2713,272.8511,-0.00054525,-8.944e-05,0.0,0 STARLINK-3158,1 49432U 21104AA  23331.39899378 -.00008944  00000-0 -54525-3 0  9999,2 49432  53.2176 359.9119 0002025  87.2713 272.8511 15.08790773112975,6918.031,95.441,541.297,538.495,0.0
49432.0,STARLINK-3158,PAYLOAD,2023-11-28 01:28:25,15.08819155,0.0002075,53.2161,356.9363,76.371,283.7513,0.0012834,0.00020185,0.0,0 STARLINK-3158,1 49432U 21104AA  23332.06140771  .00020185  00000-0  12834-2 0  9995,2 49432  53.2161 356.9363 0002075  76.3710 283.7513 15.08819155114159,6917.944,95.439,541.245,538.374,0.0
49432.0,STARLINK-3158,PAYLOAD,2023-11-28 09:25:20,15.08863851,0.000203,53.2167,355.4501,79.8829,280.2392,0.0021946,0.00034835,0.0,0 STARLINK-3158,1 49432U 21104AA  23332.39260235  .00034835  00000-0  21946-2 0  9990,2 49432  53.2167 355.4501 0002030  79.8829 280.2392 15.08863851114208,6917.807,95.436,541.077,538.268,0.0
49432.0,STARLINK-3158,PAYLOAD,2023-11-29 10:51:30,15.08882366,0.0002057,53.2169,350.6921,92.1331,267.9897,0.0017804,0.00028194,0.0,0 STARLINK-3158,1 49432U 21104AA  23333.45243113  .00028194  00000-0  17804-2 0  9993,2 49432  53.2169 350.6921 0002057  92.1331 267.9897 15.08882366114369,6917.751,95.435,541.039,538.193,0.0
49432.0,STARLINK-3158,PAYLOAD,2023-11-30 01:09:58,15.08858404,0.0002034,53.2167,348.0158,97.4641,262.6582,0.0025228,0.00040112,0.0,0 STARLINK-3158,1 49432U 21104AA  23334.04859190  .00040112  00000-0  25228-2 0  9990,2 49432  53.2167 348.0158 0002034  97.4641 262.6582 15.08858404114456,6917.824,95.436,541.096,538.282,0.0
49432.0,STARLINK-3158,PAYLOAD,2023-11-30 07:31:30,15.08857185,0.0001879,53.2168,346.8263,82.3127,277.8079,0.0014851,0.00023438,0.0,0 STARLINK-3158,1 49432U 21104AA  23334.31355100  .00023438  00000-0  14851-2 0  9994,2 49432  53.2168 346.8263 0001879  82.3127 277.8079 15.08857185114496,6917.828,95.436,540.993,538.393,0.0
49432.0,STARLINK-3158,PAYLOAD,2023-12-01 05:46:54,15.08846029,0.0002349,53.218,342.6586,109.739,250.3856,0.00094294,0.00014753,0.0,0 STARLINK-3158,1 49432U 21104AA  23335.24091289  .00014753  00000-0  94294-3 0  9992,2 49432  53.2180 342.6586 0002349 109.7390 250.3856 15.08846029114631,6917.862,95.437,541.352,538.102,0.0
49432.0,STARLINK-3158,PAYLOAD,2023-12-01 07:22:18,15.08844617,0.0002169,53.2179,342.3625,102.7815,257.3419,0.00087316,0.00013637,0.0,0 STARLINK-3158,1 49432U 21104AA  23335.30715384  .00013637  00000-0  87316-3 0  9995,2 49432  53.2179 342.3625 0002169 102.7815 257.3419 15.08844617113569,6917.866,95.437,541.232,538.231,0.0
49432.0,STARLINK-3158,PAYLOAD,2023-12-02 00:51:32,15.08855775,0.0002155,53.2184,339.0932,100.3849,259.7386,0.00065539,0.00010162,0.0,0 STARLINK-3158,1 49432U 21104AA  23336.03578963  .00010162  00000-0  65539-3 0  9999,2 49432  53.2184 339.0932 0002155 100.3849 259.7386 15.08855775114753,6917.832,95.437,541.188,538.206,0.0
49432.0,STARLINK-3158,PAYLOAD,2023-12-02 07:13:04,15.08892821,0.0002308,53.2191,337.9056,100.3925,259.7328,0.0019678,0.00031215,0.0,0 STARLINK-3158,1 49432U 21104AA  23336.30074135  .00031215  00000-0  19678-2 0  9995,2 49432  53.2191 337.9056 0002308 100.3925 259.7328 15.08892821114793,6917.719,95.434,541.181,537.987,0.0
49432.0,STARLINK-3158,PAYLOAD,2023-12-03 03:53:06,15.08804616,0.0002309,53.2197,334.0429,92.195,267.9306,-0.0010277,-0.00016592,0.0,0 STARLINK-3158,1 49432U 21104AA  23337.16187724 -.00016592  00000-0 -10277-2 0  9998,2 49432  53.2197 334.0429 0002309  92.1950 267.9306 15.08804616114925,6917.989,95.44,541.451,538.256,0.0
49432.0,STARLINK-3158,PAYLOAD,2023-12-03 05:28:29,15.08804824,0.0002345,53.2195,333.7454,95.5679,264.5581,-0.00081039,-0.00013151,0.0,0 STARLINK-3158,1 49432U 21104AA  23337.22811864 -.00013151  00000-0 -81039-3 0  9997,2 49432  53.2195 333.7454 0002345  95.5679 264.5581 15.08804824113852,6917.988,95.44,541.475,538.231,0.0
49432.0,STARLINK-3158,PAYLOAD,2023-12-03 11:50:02,15.08803543,0.0002349,53.2193,332.5559,98.0514,262.0745,-6.8786e-05,-1.382e-05,0.0,0 STARLINK-3158,1 49432U 21104AA  23337.49308686 -.00001382  00000-0 -68786-4 0  9997,2 49432  53.2193 332.5559 0002349  98.0514 262.0745 15.08803543114979,6917.992,95.44,541.482,538.232,0.0
49432.0,STARLINK-3158,PAYLOAD,2023-12-04 03:43:54,15.08846743,0.0002142,53.2182,329.5799,64.4151,295.7062,0.0027497,0.00043754,0.0,0 STARLINK-3158,1 49432U 21104AA  23338.15549438  .00043754  00000-0  27497-2 0  9992,2 49432  53.2182 329.5799 0002142  64.4151 295.7062 15.08846743115070,6917.86,95.437,541.207,538.243,0.0
49432.0,STARLINK-3158,PAYLOAD,2023-12-04 06:54:40,15.08868835,0.0002189,53.2168,328.9832,73.2471,286.8762,0.0020187,0.00032012,0.0,0 STARLINK-3158,1 49432U 21104AA  23338.28796867  .00032012  00000-0  20187-2 0  9990,2 49432  53.2168 328.9832 0002189  73.2471 286.8762 15.08868835114016,6917.792,95.436,541.172,538.143,0.0
49432.0,STARLINK-3158,PAYLOAD,2023-12-05 03:34:40,15.08879674,0.0003075,53.2178,325.1195,60.3421,299.7877,0.0016568,0.00026208,0.0,0 STARLINK-3158,1 49432U 21104AA  23339.14908192  .00026208  00000-0  16568-2 0  9990,2 49432  53.2178 325.1195 0003075  60.3421 299.7877 15.08879674115222,6917.759,95.435,541.751,537.497,0.0
49432.0,STARLINK-3158,PAYLOAD,2023-12-05 08:20:49,15.08868669,0.0002757,53.2183,324.2297,71.3493,288.7799,0.00071455,0.00011111,0.0,0 STARLINK-3158,1 49432U 21104AA  23339.34779708  .00011111  00000-0  71455-3 0  9995,2 49432  53.2183 324.2297 0002757  71.3493 288.7799 15.08868669115254,6917.793,95.436,541.565,537.751,0.0
49432.0,STARLINK-3158,PAYLOAD,2023-12-05 22:39:17,15.08855878,0.0002537,53.2169,321.5519,84.6135,275.5146,0.00052237,8.039e-05,0.0,0 STARLINK-3158,1 49432U 21104AA  23339.94395402  .00008039  00000-0  52237-3 0  9998,2 49432  53.2169 321.5519 0002537  84.6135 275.5146 15.08855878114269,6917.832,95.437,541.452,537.942,0.0
49432.0,STARLINK-3158,PAYLOAD,2023-12-06 03:25:27,15.08854062,0.0002387,53.2172,320.6569,89.9484,270.1782,0.00061171,9.464e-05,0.0,0 STARLINK-3158,1 49432U 21104AA  23340.14267364  .00009464  00000-0  61171-3 0  9997,2 49432  53.2172 320.6569 0002387  89.9484 270.1782 15.08854062115370,6917.837,95.437,541.354,538.051,0.0
49432.0,STARLINK-3158,PAYLOAD,2023-12-06 12:57:45,15.08851487,0.000251,53.2174,318.8735,84.7244,275.4035,0.00011953,1.615e-05,0.0,0 STARLINK-3158,1 49432U 21104AA  23340.54011191  .00001615  00000-0  11953-3 0  9999,2 49432  53.2174 318.8735 0002510  84.7244 275.4035 15.08851487114355,6917.845,95.437,541.447,537.974,0.0
49432.0,STARLINK-3158,PAYLOAD,2023-12-07 04:51:37,15.08833491,0.0002539,53.2181,315.9014,86.7648,273.3634,-8.7368e-05,-1.678e-05,0.0,0 STARLINK-3158,1 49432U 21104AA  23341.20251932 -.00001678  00000-0 -87368-4 0  9997,2 49432  53.2181 315.9014 0002539  86.7648 273.3634 15.08833491115530,6917.9,95.438,541.522,538.009,0.0
49432.0,STARLINK-3158,PAYLOAD,2023-12-08 07:53:11,15.08843551,0.0002336,53.2172,310.8439,95.7,264.4258,0.00035555,5.375e-05,0.0,0 STARLINK-3158,1 49432U 21104AA  23342.32860200  .00005375  00000-0  35555-3 0  9991,2 49432  53.2172 310.8439 0002336  95.7000 264.4258 15.08843551115702,6917.87,95.437,541.351,538.119,0.0
49432.0,STARLINK-3158,PAYLOAD,2023-12-09 04:33:11,15.08848805,0.0002355,53.2175,306.9763,95.9253,264.2008,0.00033794,5.096e-05,0.0,0 STARLINK-3158,1 49432U 21104AA  23343.18972021  .00005096  00000-0  33794-3 0  9994,2 49432  53.2175 306.9763 0002355  95.9253 264.2008 15.08848805114756,6917.853,95.437,541.348,538.089,0.0
49432.0,STARLINK-3158,PAYLOAD,2023-12-09 20:27:03,15.08845632,0.0002457,53.2172,304.004,110.1619,249.9637,0.00012885,1.763e-05,0.0,0 STARLINK-3158,1 49432U 21104AA  23343.85211846  .00001763  00000-0  12885-3 0  9994,2 49432  53.2172 304.0040 0002457 110.1619 249.9637 15.08845632115933,6917.863,95.437,541.428,538.028,0.0
49432.0,STARLINK-3158,PAYLOAD,2023-12-11 02:39:22,15.08841909,0.0002214,53.217,298.3545,101.9677,258.1563,4.9706e-05,5.03e-06,0.0,0 STARLINK-3158,1 49432U 21104AA  23345.11068152  .00000503  00000-0  49706-4 0  9999,2 49432  53.2170 298.3545 0002214 101.9677 258.1563 15.08841909116124,6917.875,95.437,541.271,538.208,0.0
49432.0,STARLINK-3158,PAYLOAD,2023-12-12 04:05:33,15.08840911,0.0002142,53.2173,293.5995,88.0546,272.0692,0.00014059,1.95e-05,0.0,0 STARLINK-3158,1 49432U 21104AA  23346.17052456  .00001950  00000-0  14059-3 0  9995,2 49432  53.2173 293.5995 0002142  88.0546 272.0692 15.08840911116280,6917.878,95.437,541.224,538.261,0.0
49432.0,STARLINK-3158,PAYLOAD,2023-12-13 03:56:20,15.08846914,0.0002161,53.2174,289.1394,82.874,277.2498,0.00020942,3.047e-05,0.0,0 STARLINK-3158,1 49432U 21104AA  23347.16412368  .00003047  00000-0  20942-3 0  9994,2 49432  53.2174 289.1394 0002161  82.8740 277.2498 15.08846914115351,6917.859,95.437,541.219,538.229,0.0
49432.0,STARLINK-3158,PAYLOAD,2023-12-14 03:47:07,15.08845747,0.0002499,53.2187,284.677,73.5089,286.6178,0.00013915,1.927e-05,0.0,0 STARLINK-3158,1 49432U 21104AA  23348.15772535  .00001927  00000-0  13915-3 0  9996,2 49432  53.2187 284.6770 0002499  73.5089 286.6178 15.08845747116588,6917.863,95.437,541.457,537.999,0.0
49432.0,STARLINK-3158,PAYLOAD,2023-12-15 02:02:31,15.08850601,0.0002467,53.2182,280.5167,73.9455,286.1808,0.00016891,2.402e-05,0.0,0 STARLINK-3158,1 49432U 21104AA  23349.08508129  .00002402  00000-0  16891-3 0  9990,2 49432  53.2182 280.5167 0002467  73.9455 286.1808 15.08850601115640,6917.848,95.437,541.42,538.006,0.0
